[
  {
    "number": "000053",
    "broker": "Frontera Freight Systems",
    "weight": "200",
    "pick_up": {
      "zip": "77034",
      "state": "TX",
      "city": "Houston",
      "address": "9000 Wald rd.",
      "lat": "29.6174",
      "lng": "-95.1924"
    },
    "drop": {
      "zip": "37013",
      "state": "TN",
      "city": "Antioch",
      "address": "948 Barnes Road",
      "lat": "36.0471",
      "lng": "-86.6324"
    }
  },
  {
    "number": "000054",
    "broker": "Sunteck Transport Co., Inc.",
    "weight": "750",
    "pick_up": {
      "zip": "90670",
      "state": "CA",
      "city": "Santa Fe Springs",
      "address": "13707 MARQUARDT AVE",
      "lat": "33.933",
      "lng": "-118.063"
    },
    "drop": {
      "zip": "63103",
      "state": "MO",
      "city": "Saint Louis",
      "address": "1820 MARKET ST",
      "lat": "38.6297",
      "lng": "-90.2167"
    }
  },
  {
    "number": "000055",
    "broker": "King of Freight",
    "weight": "50",
    "pick_up": {
      "zip": "78216",
      "state": "TX",
      "city": "San Antonio",
      "address": "235 Turbo Dr",
      "lat": "29.5365",
      "lng": "-98.4892"
    },
    "drop": {
      "zip": "99336",
      "state": "WA",
      "city": "Kennewick",
      "address": "6340 W Rio Grande Ave",
      "lat": "46.2138",
      "lng": "-119.179"
    }
  },
  {
    "number": "000057",
    "broker": "King of Freight",
    "weight": "3.000",
    "pick_up": {
      "zip": "78216",
      "state": "TX",
      "city": "San Antonio",
      "address": "235 West Turbo Dr",
      "lat": "29.5365",
      "lng": "-98.4892"
    },
    "drop": {
      "zip": "35124",
      "state": "AL",
      "city": "Pelham",
      "address": "652 Stuart LN",
      "lat": "33.3135",
      "lng": "-86.7632"
    }
  },
  {
    "number": "000058",
    "broker": "King of Freight",
    "weight": "1.500",
    "pick_up": {
      "zip": "63130",
      "state": "MO",
      "city": "Saint Louis",
      "address": "6200 Maple Ave,",
      "lat": "38.665",
      "lng": "-90.3253"
    },
    "drop": {
      "zip": "45204",
      "state": "OH",
      "city": "Cincinnati",
      "address": "837 DEPOT STREET",
      "lat": "39.0963",
      "lng": "-84.5717"
    }
  },
  {
    "number": "000059",
    "broker": "SWAN TRANSPORTATION SERVICES, LTD",
    "weight": "54",
    "pick_up": {
      "zip": "71107",
      "state": "LA",
      "city": "Shreveport",
      "address": "1810 BARTON DRIVE",
      "lat": "32.5967",
      "lng": "-93.8588"
    },
    "drop": {
      "zip": "78387",
      "state": "TX",
      "city": "Sinton",
      "address": "10649 HWY 77",
      "lat": "28.0917",
      "lng": "-97.5447"
    }
  },
  {
    "number": "000060",
    "broker": "Cardinal Logistics Management Corp",
    "weight": "50",
    "pick_up": {
      "zip": "28052",
      "state": "NC",
      "city": "Gastonia",
      "address": "1412 CASTLE COURT",
      "lat": "35.2238",
      "lng": "-81.2337"
    },
    "drop": {
      "zip": "28306",
      "state": "NC",
      "city": "Fayetteville",
      "address": "2900 DOC BENNETT RD",
      "lat": "34.9595",
      "lng": "-78.896"
    }
  },
  {
    "number": "000061",
    "broker": "King of Freight",
    "weight": "50",
    "pick_up": {
      "zip": "78216",
      "state": "TX",
      "city": "San Antonio",
      "address": "235 Turbo Dr",
      "lat": "29.5365",
      "lng": "-98.4892"
    },
    "drop": {
      "zip": "99336",
      "state": "WA",
      "city": "Kennewick",
      "address": "6340 W Rio Grande Ave",
      "lat": "46.2138",
      "lng": "-119.179"
    }
  },
  {
    "number": "000062",
    "broker": "Kardel Enterprises (dba Pakya)",
    "weight": "2.240",
    "pick_up": {
      "zip": "67042",
      "state": "KS",
      "city": "El Dorado",
      "address": "126 S. GRIFFITH ST",
      "lat": "37.8486",
      "lng": "-96.7983"
    },
    "drop": {
      "zip": "33166",
      "state": "FL",
      "city": "Miami",
      "address": "7950 NW 77th ST Door 1-11",
      "lat": "25.8287",
      "lng": "-80.3166"
    }
  },
  {
    "number": "000063",
    "broker": "ARI LOGISTICS",
    "weight": "15",
    "pick_up": {
      "zip": "89423",
      "state": "NV",
      "city": "Minden",
      "address": "1631 Bently Parkway South",
      "lat": "39.0176",
      "lng": "-119.749"
    },
    "drop": {
      "zip": "94128",
      "state": "CA",
      "city": "San Francisco",
      "address": "632 West Field Rd",
      "lat": "37.6221",
      "lng": "-122.385"
    }
  }
]